FENGYUN 1C DEB          
1 38115U 99025EPL 17343.11680661  .00001850  00000-0  13304-2 0  9997
2 38115  97.6889 298.9257 0332688  83.0059 280.8807 13.74408370483661
